EUTELSAT 7A             
1 28187U 04008A   25250.20684858  .00000103  00000+0  00000+0 0  9995
2 28187   5.1050  75.3820 0001531 139.7232  66.7105  1.00271668 78518
EUTELSAT 174A           
1 28924U 05052A   25250.17336495  .00000008  00000+0  00000+0 0  9995
2 28924   3.4954  80.0474 0006154  87.0241  55.8326  1.00271165 49491
EUTELSAT HOTBIRD 13B    
1 29270U 06032A   25250.16960690  .00000153  00000+0  00000+0 0  9999
2 29270   0.9237  85.4073 0004029  74.5390 280.6951  1.00270814 44465
EUTELSAT HOTBIRD 13C    
1 33459U 08065A   25250.16059352 -.00000102  00000+0  00000+0 0  9990
2 33459   2.2160  82.5676 0004330 105.6657 203.5844  1.00271704 44502
EUTELSAT 36B            
1 36101U 09065A   25250.18239431  .00000109  00000+0  00000+0 0  9994
2 36101   0.0550 347.6229 0005908 182.5304 292.5066  1.00272845 57877
EUTELSAT KA-SAT 9A      
1 37258U 10069A   25250.16484021  .00000059  00000+0  00000+0 0  9993
2 37258   0.0553 322.8306 0003340 173.6279 278.3764  1.00269572 41160
EUTELSAT 7 WEST A       
1 37816U 11051A   25250.16163353 -.00000063  00000+0  00000+0 0  9993
2 37816   0.0638 349.5435 0005924 185.4688 222.3592  1.00271061 51040
EUTELSAT 16A            
1 37836U 11057A   25250.16622689  .00000101  00000+0  00000+0 0  9995
2 37836   0.0651 348.4400 0005398 175.9821 257.9032  1.00270489  4487
